{
  "type": "FeatureCollection",
  "features": [
    {
      "type": "Feature",
      "properties": {
        "norad_id": 34141,
        "name": "COSMOS 2251 DEB",
        "group": "cosmos-2251-debris",
        "lat": -55.06982967121395,
        "lon": 5.407437735193061,
        "alt_km": 768.2862488658029,
        "timestamp": "2025-12-12T07:43:20.909556+00:00",
        "meta_object_name": "COSMOS 2251 DEB",
        "meta_object_id": "1993-036LN",
        "meta_epoch": "2025-12-11T14:28:39.536832",
        "meta_mean_motion": 14.49221571,
        "meta_eccentricity": 0.00472849,
        "meta_inclination": 74.0111,
        "meta_ra_of_asc_node": 30.9958,
        "meta_arg_of_pericenter": 117.6667,
        "meta_mean_anomaly": 36.6941,
        "meta_ephemeris_type": 0,
        "meta_classification_type": "U",
        "meta_norad_cat_id": 34141,
        "meta_element_set_no": 999,
        "meta_rev_at_epoch": 87677,
        "meta_bstar": 0.0022880727,
        "meta_mean_motion_dot": 8.826e-05,
        "meta_mean_motion_ddot": 0,
        "tle_line1": "1 34141U 93036LN  25345.60323538  .00008826  00000+0  22881-2 0  9999",
        "tle_line2": "2 34141  74.0111  30.9958 0047284 117.6667  36.6941 14.49221571876772"
      },
      "geometry": {
        "type": "Point",
        "coordinates": [
          5.407437735193061,
          -55.06982967121395
        ]
      }
    },
    {
      "type": "Feature",
      "properties": {
        "norad_id": 34270,
        "name": "COSMOS 2251 DEB",
        "group": "cosmos-2251-debris",
        "lat": -51.563746974192945,
        "lon": 148.61132548327134,
        "alt_km": 706.5444760675291,
        "timestamp": "2025-12-12T07:43:20.909567+00:00",
        "meta_object_name": "COSMOS 2251 DEB",
        "meta_object_id": "1993-036LQ",
        "meta_epoch": "2025-12-12T00:06:17.696736",
        "meta_mean_motion": 14.65158625,
        "meta_eccentricity": 0.00477791,
        "meta_inclination": 74.0115,
        "meta_ra_of_asc_node": 308.0439,
        "meta_arg_of_pericenter": 101.0421,
        "meta_mean_anomaly": 259.6126,
        "meta_ephemeris_type": 0,
        "meta_classification_type": "U",
        "meta_norad_cat_id": 34270,
        "meta_element_set_no": 999,
        "meta_rev_at_epoch": 89085,
        "meta_bstar": 0.0012114332,
        "meta_mean_motion_dot": 6.6e-05,
        "meta_mean_motion_ddot": 0,
        "tle_line1": "1 34270U 93036LQ  25346.00437149  .00006600  00000+0  12114-2 0  9997",
        "tle_line2": "2 34270  74.0115 308.0439 0047779 101.0421 259.6126 14.65158625890850"
      },
      "geometry": {
        "type": "Point",
        "coordinates": [
          148.61132548327134,
          -51.563746974192945
        ]
      }
    },
    {
      "type": "Feature",
      "properties": {
        "norad_id": 34271,
        "name": "COSMOS 2251 DEB",
        "group": "cosmos-2251-debris",
        "lat": 8.119162712633898,
        "lon": 17.7970791403565,
        "alt_km": 658.5376925903192,
        "timestamp": "2025-12-12T07:43:20.909577+00:00",
        "meta_object_name": "COSMOS 2251 DEB",
        "meta_object_id": "1993-036LR",
        "meta_epoch": "2025-12-12T00:58:38.628768",
        "meta_mean_motion": 14.70736042,
        "meta_eccentricity": 0.00188577,
        "meta_inclination": 74.0204,
        "meta_ra_of_asc_node": 200.6858,
        "meta_arg_of_pericenter": 254.8683,
        "meta_mean_anomaly": 229.3614,
        "meta_ephemeris_type": 0,
        "meta_classification_type": "U",
        "meta_norad_cat_id": 34271,
        "meta_element_set_no": 999,
        "meta_rev_at_epoch": 88224,
        "meta_bstar": 0.0028462557,
        "meta_mean_motion_dot": 0.0001742,
        "meta_mean_motion_ddot": 0,
        "tle_line1": "1 34271U 93036LR  25346.04072487  .00017420  00000+0  28463-2 0  9998",
        "tle_line2": "2 34271  74.0204 200.6858 0018857 254.8683 229.3614 14.70736042882245"
      },
      "geometry": {
        "type": "Point",
        "coordinates": [
          17.7970791403565,
          8.119162712633898
        ]
      }
    },
    {
      "type": "Feature",
      "properties": {
        "norad_id": 34273,
        "name": "COSMOS 2251 DEB",
        "group": "cosmos-2251-debris",
        "lat": -24.551444783869805,
        "lon": -84.25834725801967,
        "alt_km": 684.5186266446754,
        "timestamp": "2025-12-12T07:43:20.909588+00:00",
        "meta_object_name": "COSMOS 2251 DEB",
        "meta_object_id": "1993-036LT",
        "meta_epoch": "2025-12-10T17:41:11.223744",
        "meta_mean_motion": 14.61194544,
        "meta_eccentricity": 0.00141924,
        "meta_inclination": 74.0358,
        "meta_ra_of_asc_node": 91.2565,
        "meta_arg_of_pericenter": 217.0969,
        "meta_mean_anomaly": 295.0743,
        "meta_ephemeris_type": 0,
        "meta_classification_type": "U",
        "meta_norad_cat_id": 34273,
        "meta_element_set_no": 999,
        "meta_rev_at_epoch": 88592,
        "meta_bstar": 0.001703441,
        "meta_mean_motion_dot": 8.384e-05,
        "meta_mean_motion_ddot": 0,
        "tle_line1": "1 34273U 93036LT  25344.73693546  .00008384  00000+0  17034-2 0  9990",
        "tle_line2": "2 34273  74.0358  91.2565 0014192 217.0969 295.0743 14.61194544885928"
      },
      "geometry": {
        "type": "Point",
        "coordinates": [
          -84.25834725801967,
          -24.551444783869805
        ]
      }
    },
    {
      "type": "Feature",
      "properties": {
        "norad_id": 34274,
        "name": "COSMOS 2251 DEB",
        "group": "cosmos-2251-debris",
        "lat": -69.7439361478622,
        "lon": 18.35988702719923,
        "alt_km": 677.6917599376893,
        "timestamp": "2025-12-12T07:43:20.909598+00:00",
        "meta_object_name": "COSMOS 2251 DEB",
        "meta_object_id": "1993-036LU",
        "meta_epoch": "2025-12-11T12:30:20.301984",
        "meta_mean_motion": 14.64765236,
        "meta_eccentricity": 0.0022066,
        "meta_inclination": 74.0044,
        "meta_ra_of_asc_node": 70.9153,
        "meta_arg_of_pericenter": 220.9099,
        "meta_mean_anomaly": 160.9588,
        "meta_ephemeris_type": 0,
        "meta_classification_type": "U",
        "meta_norad_cat_id": 34274,
        "meta_element_set_no": 999,
        "meta_rev_at_epoch": 88658,
        "meta_bstar": 0.00249238,
        "meta_mean_motion_dot": 0.00013329,
        "meta_mean_motion_ddot": 0,
        "tle_line1": "1 34274U 93036LU  25345.52106831  .00013329  00000+0  24924-2 0  9996",
        "tle_line2": "2 34274  74.0044  70.9153 0022066 220.9099 160.9588 14.64765236886589"
      },
      "geometry": {
        "type": "Point",
        "coordinates": [
          18.35988702719923,
          -69.7439361478622
        ]
      }
    },
    {
      "type": "Feature",
      "properties": {
        "norad_id": 34276,
        "name": "COSMOS 2251 DEB",
        "group": "cosmos-2251-debris",
        "lat": -48.700267236418824,
        "lon": -74.85128657856826,
        "alt_km": 692.6472619711249,
        "timestamp": "2025-12-12T07:43:20.909609+00:00",
        "meta_object_name": "COSMOS 2251 DEB",
        "meta_object_id": "1993-036LW",
        "meta_epoch": "2025-12-11T18:13:20.631648",
        "meta_mean_motion": 14.57218193,
        "meta_eccentricity": 0.00226135,
        "meta_inclination": 74.0233,
        "meta_ra_of_asc_node": 87.1847,
        "meta_arg_of_pericenter": 234.0096,
        "meta_mean_anomaly": 287.6344,
        "meta_ephemeris_type": 0,
        "meta_classification_type": "U",
        "meta_norad_cat_id": 34276,
        "meta_element_set_no": 999,
        "meta_rev_at_epoch": 88578,
        "meta_bstar": 0.0013327337,
        "meta_mean_motion_dot": 6.017e-05,
        "meta_mean_motion_ddot": 0,
        "tle_line1": "1 34276U 93036LW  25345.75926657  .00006017  00000+0  13327-2 0  9990",
        "tle_line2": "2 34276  74.0233  87.1847 0022613 234.0096 287.6344 14.57218193885787"
      },
      "geometry": {
        "type": "Point",
        "coordinates": [
          -74.85128657856826,
          -48.700267236418824
        ]
      }
    },
    {
      "type": "Feature",
      "properties": {
        "norad_id": 34297,
        "name": "COSMOS 2251 DEB",
        "group": "cosmos-2251-debris",
        "lat": -73.48857492642837,
        "lon": -149.76504386609324,
        "alt_km": 774.326498563396,
        "timestamp": "2025-12-12T07:43:20.909619+00:00",
        "meta_object_name": "COSMOS 2251 DEB",
        "meta_object_id": "1993-036MT",
        "meta_epoch": "2025-12-12T00:09:23.068800",
        "meta_mean_motion": 14.36628278,
        "meta_eccentricity": 0.00172552,
        "meta_inclination": 74.0486,
        "meta_ra_of_asc_node": 285.5785,
        "meta_arg_of_pericenter": 354.3325,
        "meta_mean_anomaly": 90.3669,
        "meta_ephemeris_type": 0,
        "meta_classification_type": "U",
        "meta_norad_cat_id": 34297,
        "meta_element_set_no": 999,
        "meta_rev_at_epoch": 88054,
        "meta_bstar": 0.00023656075,
        "meta_mean_motion_dot": 6.71e-06,
        "meta_mean_motion_ddot": 0,
        "tle_line1": "1 34297U 93036MT  25346.00651700  .00000671  00000+0  23656-3 0  9993",
        "tle_line2": "2 34297  74.0486 285.5785 0017255 354.3325  90.3669 14.36628278880546"
      },
      "geometry": {
        "type": "Point",
        "coordinates": [
          -149.76504386609324,
          -73.48857492642837
        ]
      }
    }
  ]
}